[{"OBJECT_NAME":"SPACEVAN-001","OBJECT_ID":"2023-174AR","EPOCH":"2026-03-06T17:14:39.911136","MEAN_MOTION":15.56994212,"ECCENTRICITY":0.0010232,"INCLINATION":97.3882,"RA_OF_ASC_NODE":158.905,"ARG_OF_PERICENTER":98.6633,"MEAN_ANOMALY":261.5782,"EPHEMERIS_TYPE":0,"CLASSIFICATION_TYPE":"U","NORAD_CAT_ID":58295,"ELEMENT_SET_NO":999,"REV_AT_EPOCH":13019,"BSTAR":0.0002505511,"MEAN_MOTION_DOT":0.00018026,"MEAN_MOTION_DDOT":0},{"OBJECT_NAME":"STARLINK-36391","OBJECT_ID":"2026-018C","EPOCH":"2026-03-09T22:00:01.999584","MEAN_MOTION":15.71805475,"ECCENTRICITY":0.00018979,"INCLINATION":97.2838,"RA_OF_ASC_NODE":134.8081,"ARG_OF_PERICENTER":78.8846,"MEAN_ANOMALY":80.4712,"EPHEMERIS_TYPE":0,"CLASSIFICATION_TYPE":"U","NORAD_CAT_ID":67591,"ELEMENT_SET_NO":999,"REV_AT_EPOCH":592,"BSTAR":-0.017101099,"MEAN_MOTION_DOT":-0.01917866,"MEAN_MOTION_DDOT":0}]
